start=new Date('2022-10-31T00:00:00.000Z').valueOf();
sats=[{"MEAN_MOTION_DDOT":"0.0000000000000","MEAN_MOTION_DOT":"0.00001375","RCS_SIZE":"LARGE","PERIAPSIS":"569.959","ECCENTRICITY":"0.00029930","REF_FRAME":"TEME","CENTER_NAME":"EARTH","INCLINATION":"70.0010","PERIOD":"96.107","MEAN_ANOMALY":"100.2626","MEAN_ELEMENT_THEORY":"SGP4","ARG_OF_PERICENTER":"259.8196","EPHEMERIS_TYPE":"0","TLE_LINE1":"1 49135U 21082F   22303.84439219  .00001375  00000-0  12296-3 0  9994","GP_ID":"216529913","TLE_LINE2":"2 49135  70.0010 105.2488 0002993 259.8196 100.2626 14.98336050 63356","COUNTRY_CODE":"US","FILE":"3637924","RA_OF_ASC_NODE":"105.2488","OBJECT_NAME":"STARLINK-3073","REV_AT_EPOCH":"6335","LAUNCH_DATE":"2021-09-14","TIME_SYSTEM":"UTC","ELEMENT_SET_NO":"999","SITE":"AFWTR","MEAN_MOTION":"14.98336050","APOAPSIS":"574.119","NORAD_CAT_ID":"49135","CLASSIFICATION_TYPE":"U","OBJECT_TYPE":"PAYLOAD","EPOCH":"2022-10-30T20:15:55.485216","SEMIMAJOR_AXIS":"6950.174","BSTAR":"0.00012296000000","DECAY_DATE":null,"OBJECT_ID":"2021-082F"},{"FILE":"3637924","COUNTRY_CODE":"US","TLE_LINE2":"2 49136  69.9993 125.0871 0003360 242.8375 117.2441 14.98326882 62871","GP_ID":"216530659","TLE_LINE1":"1 49136U 21082G   22303.90506467 -.00000342  00000-0 -20843-4 0  9995","RA_OF_ASC_NODE":"125.0871","REF_FRAME":"TEME","ECCENTRICITY":"0.00033600","RCS_SIZE":"LARGE","PERIAPSIS":"569.732","MEAN_MOTION_DDOT":"0.0000000000000","MEAN_MOTION_DOT":"-0.00000342","ARG_OF_PERICENTER":"242.8375","EPHEMERIS_TYPE":"0","MEAN_ELEMENT_THEORY":"SGP4","MEAN_ANOMALY":"117.2441","PERIOD":"96.107","INCLINATION":"69.9993","CENTER_NAME":"EARTH","SEMIMAJOR_AXIS":"6950.203","EPOCH":"2022-10-30T21:43:17.587488","OBJECT_TYPE":"PAYLOAD","CLASSIFICATION_TYPE":"U","OBJECT_ID":"2021-082G","DECAY_DATE":null,"BSTAR":"-0.00002084300000","SITE":"AFWTR","MEAN_MOTION":"14.98326882","ELEMENT_SET_NO":"999","TIME_SYSTEM":"UTC","LAUNCH_DATE":"2021-09-14","REV_AT_EPOCH":"6287","OBJECT_NAME":"STARLINK-3084","NORAD_CAT_ID":"49136","APOAPSIS":"574.403"},{"MEAN_ELEMENT_THEORY":"SGP4","ARG_OF_PERICENTER":"258.2051","EPHEMERIS_TYPE":"0","CENTER_NAME":"EARTH","MEAN_ANOMALY":"101.8791","PERIOD":"96.107","INCLINATION":"69.9991","REF_FRAME":"TEME","MEAN_MOTION_DDOT":"0.0000000000000","MEAN_MOTION_DOT":"0.00001629","PERIAPSIS":"570.077","RCS_SIZE":"LARGE","ECCENTRICITY":"0.00028290","RA_OF_ASC_NODE":"125.1103","GP_ID":"216529151","TLE_LINE2":"2 49137  69.9991 125.1103 0002829 258.2051 101.8791 14.98334789 62861","COUNTRY_CODE":"US","FILE":"3637924","TLE_LINE1":"1 49137U 21082H   22303.90030806  .00001629  00000-0  14428-3 0  9993","NORAD_CAT_ID":"49137","APOAPSIS":"574.009","LAUNCH_DATE":"2021-09-14","TIME_SYSTEM":"UTC","ELEMENT_SET_NO":"999","SITE":"AFWTR","MEAN_MOTION":"14.98334789","OBJECT_NAME":"STARLINK-3055","REV_AT_EPOCH":"6286","DECAY_DATE":null,"OBJECT_ID":"2021-082H","BSTAR":"0.00014428000000","EPOCH":"2022-10-30T21:36:26.616384","SEMIMAJOR_AXIS":"6950.178","CLASSIFICATION_TYPE":"U","OBJECT_TYPE":"PAYLOAD"},{"OBJECT_ID":"2021-082J","DECAY_DATE":null,"BSTAR":"0.00007146000000","SEMIMAJOR_AXIS":"6950.139","EPOCH":"2022-10-30T17:34:10.414272","OBJECT_TYPE":"PAYLOAD","CLASSIFICATION_TYPE":"U","NORAD_CAT_ID":"49138","APOAPSIS":"574.396","SITE":"AFWTR","MEAN_MOTION":"14.98347390","ELEMENT_SET_NO":"999","TIME_SYSTEM":"UTC","LAUNCH_DATE":"2021-09-14","REV_AT_EPOCH":"6234","OBJECT_NAME":"STARLINK-3058","RA_OF_ASC_NODE":"145.5391","FILE":"3637924","TLE_LINE2":"2 49138  69.9993 145.5391 0003442 241.2765 118.8049 14.98347390 62344","COUNTRY_CODE":"US","GP_ID":"216529663","TLE_LINE1":"1 49138U 21082J   22303.73206498  .00000760  00000-0  71460-4 0  9992","EPHEMERIS_TYPE":"0","ARG_OF_PERICENTER":"241.2765","MEAN_ELEMENT_THEORY":"SGP4","MEAN_ANOMALY":"118.8049","PERIOD":"96.106","INCLINATION":"69.9993","CENTER_NAME":"EARTH","REF_FRAME":"TEME","ECCENTRICITY":"0.00034420","PERIAPSIS":"569.612","RCS_SIZE":"LARGE","MEAN_MOTION_DOT":"0.00000760","MEAN_MOTION_DDOT":"0.0000000000000"},{"FILE":"3637924","GP_ID":"216529414","COUNTRY_CODE":"US","TLE_LINE2":"2 49139  70.0002 105.2700 0003085 266.8907  93.1899 14.98339753 63343","TLE_LINE1":"1 49139U 21082K   22303.83485380  .00001706  00000-0  15074-3 0  9992","RA_OF_ASC_NODE":"105.2700","REF_FRAME":"TEME","ECCENTRICITY":"0.00030850","MEAN_MOTION_DDOT":"0.0000000000000","MEAN_MOTION_DOT":"0.00001706","PERIAPSIS":"569.884","RCS_SIZE":"LARGE","ARG_OF_PERICENTER":"266.8907","EPHEMERIS_TYPE":"0","MEAN_ELEMENT_THEORY":"SGP4","PERIOD":"96.106","INCLINATION":"70.0002","MEAN_ANOMALY":"93.1899","CENTER_NAME":"EARTH","SEMIMAJOR_AXIS":"6950.163","EPOCH":"2022-10-30T20:02:11.368320","CLASSIFICATION_TYPE":"U","OBJECT_TYPE":"PAYLOAD","OBJECT_ID":"2021-082K","DECAY_DATE":null,"BSTAR":"0.00015074000000","SITE":"AFWTR","ELEMENT_SET_NO":"999","MEAN_MOTION":"14.98339753","LAUNCH_DATE":"2021-09-14","TIME_SYSTEM":"UTC","REV_AT_EPOCH":"6334","OBJECT_NAME":"STARLINK-3057","NORAD_CAT_ID":"49139","APOAPSIS":"574.172"},{"RA_OF_ASC_NODE":"105.1222","GP_ID":"216530160","COUNTRY_CODE":"US","TLE_LINE2":"2 49140  69.9996 105.1222 0003178 263.0182  97.0615 14.98334817 63355","FILE":"3637924","TLE_LINE1":"1 49140U 21082L   22303.89207801  .00000223  00000-0  26454-4 0  9998","MEAN_ELEMENT_THEORY":"SGP4","ARG_OF_PERICENTER":"263.0182","EPHEMERIS_TYPE":"0","CENTER_NAME":"EARTH","INCLINATION":"69.9996","PERIOD":"96.107","MEAN_ANOMALY":"97.0615","REF_FRAME":"TEME","MEAN_MOTION_DDOT":"0.0000000000000","MEAN_MOTION_DOT":"0.00000223","PERIAPSIS":"569.834","RCS_SIZE":"LARGE","ECCENTRICITY":"0.00031780","DECAY_DATE":null,"OBJECT_ID":"2021-082L","BSTAR":"0.00002645400000","EPOCH":"2022-10-30T21:24:35.540064","SEMIMAJOR_AXIS":"6950.178","CLASSIFICATION_TYPE":"U","OBJECT_TYPE":"PAYLOAD","NORAD_CAT_ID":"49140","APOAPSIS":"574.252","LAUNCH_DATE":"2021-09-14","TIME_SYSTEM":"UTC","MEAN_MOTION":"14.98334817","SITE":"AFWTR","ELEMENT_SET_NO":"999","OBJECT_NAME":"STARLINK-3118","REV_AT_EPOCH":"6335"},{"EPHEMERIS_TYPE":"0","ARG_OF_PERICENTER":"242.0310","MEAN_ELEMENT_THEORY":"SGP4","PERIOD":"96.104","INCLINATION":"69.9998","MEAN_ANOMALY":"118.0562","CENTER_NAME":"EARTH","REF_FRAME":"TEME","ECCENTRICITY":"0.00028370","PERIAPSIS":"569.959","RCS_SIZE":"LARGE","MEAN_MOTION_DOT":"-0.00007725","MEAN_MOTION_DDOT":"0.0000000000000","RA_OF_ASC_NODE":"145.1967","FILE":"3637924","TLE_LINE2":"2 49141  69.9998 145.1967 0002837 242.0310 118.0562 14.98371265 63565","COUNTRY_CODE":"US","GP_ID":"216529651","TLE_LINE1":"1 49141U 21082M   22303.86080752 -.00007725  00000-0 -63964-3 0  9992","NORAD_CAT_ID":"49141","APOAPSIS":"573.902","ELEMENT_SET_NO":"999","SITE":"AFWTR","MEAN_MOTION":"14.98371265","TIME_SYSTEM":"UTC","LAUNCH_DATE":"2021-09-14","REV_AT_EPOCH":"6356","OBJECT_NAME":"STARLINK-3093","OBJECT_ID":"2021-082M","DECAY_DATE":null,"BSTAR":"-0.00063964000000","SEMIMAJOR_AXIS":"6950.065","EPOCH":"2022-10-30T20:39:33.769728","OBJECT_TYPE":"PAYLOAD","CLASSIFICATION_TYPE":"U"},{"MEAN_ELEMENT_THEORY":"SGP4","EPHEMERIS_TYPE":"0","ARG_OF_PERICENTER":"258.6063","CENTER_NAME":"EARTH","MEAN_ANOMALY":"101.4744","PERIOD":"96.105","INCLINATION":"69.9984","REF_FRAME":"TEME","MEAN_MOTION_DDOT":"0.0000000000000","MEAN_MOTION_DOT":"-0.00000583","RCS_SIZE":"LARGE","PERIAPSIS":"569.802","ECCENTRICITY":"0.00031340","RA_OF_ASC_NODE":"105.1396","GP_ID":"216529164","COUNTRY_CODE":"US","TLE_LINE2":"2 49142  69.9984 105.1396 0003134 258.6063 101.4744 14.98355169 63352","FILE":"3637924","TLE_LINE1":"1 49142U 21082N   22303.88730248 -.00000583  00000-0 -41065-4 0  9991","NORAD_CAT_ID":"49142","APOAPSIS":"574.158","LAUNCH_DATE":"2021-09-14","TIME_SYSTEM":"UTC","ELEMENT_SET_NO":"999","SITE":"AFWTR","MEAN_MOTION":"14.98355169","OBJECT_NAME":"STARLINK-3042","REV_AT_EPOCH":"6335","DECAY_DATE":null,"OBJECT_ID":"2021-082N","BSTAR":"-0.00004106500000","EPOCH":"2022-10-30T21:17:42.934272","SEMIMAJOR_AXIS":"6950.115","CLASSIFICATION_TYPE":"U","OBJECT_TYPE":"PAYLOAD"},{"OBJECT_NAME":"STARLINK-3109","REV_AT_EPOCH":"6397","TIME_SYSTEM":"UTC","LAUNCH_DATE":"2021-09-14","SITE":"AFWTR","MEAN_MOTION":"14.98331091","ELEMENT_SET_NO":"999","APOAPSIS":"574.548","NORAD_CAT_ID":"49143","OBJECT_TYPE":"PAYLOAD","CLASSIFICATION_TYPE":"U","EPOCH":"2022-10-30T21:29:33.559584","SEMIMAJOR_AXIS":"6950.190","BSTAR":"0.00008409900000","DECAY_DATE":null,"OBJECT_ID":"2021-082P","PERIAPSIS":"569.561","RCS_SIZE":"LARGE","MEAN_MOTION_DDOT":"0.0000000000000","MEAN_MOTION_DOT":"0.00000911","ECCENTRICITY":"0.00035870","REF_FRAME":"TEME","CENTER_NAME":"EARTH","INCLINATION":"69.9984","PERIOD":"96.107","MEAN_ANOMALY":"133.3870","MEAN_ELEMENT_THEORY":"SGP4","ARG_OF_PERICENTER":"226.6990","EPHEMERIS_TYPE":"0","TLE_LINE1":"1 49143U 21082P   22303.89552731  .00000911  00000-0  84099-4 0  9999","TLE_LINE2":"2 49143  69.9984 125.1066 0003587 226.6990 133.3870 14.98331091 63975","COUNTRY_CODE":"US","GP_ID":"216529914","FILE":"3637924","RA_OF_ASC_NODE":"125.1066"},{"RA_OF_ASC_NODE":"145.2232","TLE_LINE1":"1 49144U 21082Q   22303.85607360 -.00002464  00000-0 -19887-3 0  9994","GP_ID":"216530660","COUNTRY_CODE":"US","TLE_LINE2":"2 49144  70.0000 145.2232 0003209 253.2353 106.8454 14.98315715 62366","FILE":"3637924","CENTER_NAME":"EARTH","MEAN_ANOMALY":"106.8454","PERIOD":"96.108","INCLINATION":"70.0000","MEAN_ELEMENT_THEORY":"SGP4","ARG_OF_PERICENTER":"253.2353","EPHEMERIS_TYPE":"0","MEAN_MOTION_DDOT":"0.0000000000000","MEAN_MOTION_DOT":"-0.00002464","RCS_SIZE":"LARGE","PERIAPSIS":"569.872","ECCENTRICITY":"0.00032090","REF_FRAME":"TEME","BSTAR":"-0.00019887000000","DECAY_DATE":null,"OBJECT_ID":"2021-082Q","CLASSIFICATION_TYPE":"U","OBJECT_TYPE":"PAYLOAD","EPOCH":"2022-10-30T20:32:44.759040","SEMIMAJOR_AXIS":"6950.237","APOAPSIS":"574.332","NORAD_CAT_ID":"49144","OBJECT_NAME":"STARLINK-3100","REV_AT_EPOCH":"6236","LAUNCH_DATE":"2021-09-14","TIME_SYSTEM":"UTC","MEAN_MOTION":"14.98315715","SITE":"AFWTR","ELEMENT_SET_NO":"999"}];
